{
 "type": "Feature",
 "properties": {
  "name": "Trishuli catchment above Bidur",
  "outlet_stated": {
   "lat": 27.87,
   "lon": 85.162
  },
  "outlet_snapped": {
   "lat": 27.86458,
   "lon": 85.11125
  },
  "area_km2": 4763.0,
  "cells": 630953,
  "touches_grid_edge": false,
  "elevation_model": "Copernicus DEM GLO-90, via Microsoft Planetary Computer",
  "method": "priority flood drainage (Barnes et al. 2014), D8 neighbours",
  "simplify_tolerance_deg": 0.004,
  "built_utc": "2026-10-01T07:07:10.951871+00:00"
 },
 "geometry": {
  "type": "Polygon",
  "coordinates": [
   [
    [
     85.27417,
     29.01
    ],
    [
     85.26333,
     29.00167
    ],
    [
     85.25,
     29.00417
    ],
    [
     85.2525,
     28.995
    ],
    [
     85.24583,
     28.99
    ],
    [
     85.21417,
     28.995
    ],
    [
     85.20083,
     29.0075
    ],
    [
     85.18667,
     28.99417
    ],
    [
     85.16583,
     29.00083
    ],
    [
     85.15417,
     28.99083
    ],
    [
     85.15333,
     28.98083
    ],
    [
     85.1325,
     28.995
    ],
    [
     85.09417,
     28.98417
    ],
    [
     85.08583,
     28.97583
    ],
    [
     85.06833,
     28.985
    ],
    [
     85.06583,
     28.9775
    ],
    [
     85.0275,
     28.97667
    ],
    [
     85.02583,
     28.97
    ],
    [
     85.00167,
     28.96833
    ],
    [
     84.9925,
     28.93333
    ],
    [
     84.96333,
     28.92083
    ],
    [
     84.97167,
     28.89583
    ],
    [
     84.96083,
     28.88917
    ],
    [
     84.94417,
     28.86
    ],
    [
     84.94917,
     28.85333
    ],
    [
     84.96083,
     28.8575
    ],
    [
     85.00333,
     28.835
    ],
    [
     85.025,
     28.84
    ],
    [
     85.0275,
     28.83083
    ],
    [
     85.0425,
     28.82667
    ],
    [
     85.035,
     28.8025
    ],
    [
     85.02667,
     28.79833
    ],
    [
     85.0375,
     28.78833
    ],
    [
     85.02833,
     28.77917
    ],
    [
     85.03917,
     28.77167
    ],
    [
     85.09917,
     28.76917
    ],
    [
     85.13833,
     28.75917
    ],
    [
     85.1275,
     28.74417
    ],
    [
     85.13167,
     28.7275
    ],
    [
     85.12,
     28.7225
    ],
    [
     85.12333,
     28.70167
    ],
    [
     85.11417,
     28.68667
    ],
    [
     85.12917,
     28.67917
    ],
    [
     85.15667,
     28.64417
    ],
    [
     85.18167,
     28.645
    ],
    [
     85.18667,
     28.64167
    ],
    [
     85.18417,
     28.63167
    ],
    [
     85.1975,
     28.6275
    ],
    [
     85.18917,
     28.60583
    ],
    [
     85.17333,
     28.5975
    ],
    [
     85.19083,
     28.56917
    ],
    [
     85.18417,
     28.5625
    ],
    [
     85.18583,
     28.53417
    ],
    [
     85.16583,
     28.53333
    ],
    [
     85.1525,
     28.49083
    ],
    [
     85.11583,
     28.48583
    ],
    [
     85.10833,
     28.46167
    ],
    [
     85.09667,
     28.45833
    ],
    [
     85.10083,
     28.44667
    ],
    [
     85.11333,
     28.44417
    ],
    [
     85.115,
     28.40833
    ],
    [
     85.12667,
     28.39333
    ],
    [
     85.1075,
     28.34667
    ],
    [
     85.12167,
     28.33667
    ],
    [
     85.12,
     28.32667
    ],
    [
     85.13333,
     28.305
    ],
    [
     85.15083,
     28.2975
    ],
    [
     85.1625,
     28.27583
    ],
    [
     85.17333,
     28.27167
    ],
    [
     85.18583,
     28.2775
    ],
    [
     85.18833,
     28.2425
    ],
    [
     85.18,
     28.23417
    ],
    [
     85.17833,
     28.22
    ],
    [
     85.18583,
     28.19917
    ],
    [
     85.16917,
     28.18417
    ],
    [
     85.17417,
     28.17417
    ],
    [
     85.16667,
     28.1475
    ],
    [
     85.15417,
     28.14083
    ],
    [
     85.16083,
     28.12417
    ],
    [
     85.12,
     28.105
    ],
    [
     85.1225,
     28.09333
    ],
    [
     85.11583,
     28.0775
    ],
    [
     85.08,
     28.0675
    ],
    [
     85.0725,
     28.0375
    ],
    [
     85.06083,
     28.02583
    ],
    [
     85.05667,
     28.01083
    ],
    [
     85.07,
     27.99583
    ],
    [
     85.04417,
     27.9875
    ],
    [
     85.05417,
     27.9675
    ],
    [
     85.04583,
     27.94667
    ],
    [
     85.04917,
     27.93333
    ],
    [
     85.095,
     27.91667
    ],
    [
     85.09333,
     27.88
    ],
    [
     85.11333,
     27.86167
    ],
    [
     85.1475,
     27.88083
    ],
    [
     85.15,
     27.89583
    ],
    [
     85.16333,
     27.905
    ],
    [
     85.16667,
     27.92167
    ],
    [
     85.1775,
     27.92417
    ],
    [
     85.18167,
     27.9325
    ],
    [
     85.205,
     27.93417
    ],
    [
     85.21167,
     27.94167
    ],
    [
     85.22667,
     27.94417
    ],
    [
     85.22583,
     27.95917
    ],
    [
     85.23167,
     27.96167
    ],
    [
     85.24833,
     27.955
    ],
    [
     85.28,
     27.955
    ],
    [
     85.29083,
     27.96833
    ],
    [
     85.29,
     27.98417
    ],
    [
     85.32917,
     27.98833
    ],
    [
     85.34083,
     28.01083
    ],
    [
     85.35667,
     28.0125
    ],
    [
     85.3875,
     28.02917
    ],
    [
     85.39167,
     28.0375
    ],
    [
     85.4,
     28.0375
    ],
    [
     85.40417,
     28.05583
    ],
    [
     85.4125,
     28.06333
    ],
    [
     85.42583,
     28.06167
    ],
    [
     85.43167,
     28.08167
    ],
    [
     85.48833,
     28.10917
    ],
    [
     85.49583,
     28.11917
    ],
    [
     85.49,
     28.14
    ],
    [
     85.50583,
     28.15583
    ],
    [
     85.51833,
     28.155
    ],
    [
     85.5325,
     28.1675
    ],
    [
     85.5525,
     28.17
    ],
    [
     85.58333,
     28.15417
    ],
    [
     85.60083,
     28.15917
    ],
    [
     85.6125,
     28.15167
    ],
    [
     85.61417,
     28.13417
    ],
    [
     85.6275,
     28.13
    ],
    [
     85.6525,
     28.15333
    ],
    [
     85.71167,
     28.1625
    ],
    [
     85.7175,
     28.17417
    ],
    [
     85.72667,
     28.17
    ],
    [
     85.74917,
     28.17667
    ],
    [
     85.7725,
     28.17417
    ],
    [
     85.79833,
     28.19583
    ],
    [
     85.77583,
     28.20833
    ],
    [
     85.775,
     28.21583
    ],
    [
     85.74667,
     28.24
    ],
    [
     85.74167,
     28.2725
    ],
    [
     85.73167,
     28.2925
    ],
    [
     85.7375,
     28.32
    ],
    [
     85.725,
     28.32917
    ],
    [
     85.73083,
     28.34
    ],
    [
     85.71167,
     28.38667
    ],
    [
     85.68167,
     28.38083
    ],
    [
     85.67417,
     28.39333
    ],
    [
     85.6775,
     28.40083
    ],
    [
     85.66583,
     28.41
    ],
    [
     85.6625,
     28.43417
    ],
    [
     85.64333,
     28.44667
    ],
    [
     85.615,
     28.45167
    ],
    [
     85.61333,
     28.46
    ],
    [
     85.5925,
     28.47083
    ],
    [
     85.58833,
     28.48333
    ],
    [
     85.59583,
     28.49333
    ],
    [
     85.58833,
     28.50417
    ],
    [
     85.57417,
     28.50667
    ],
    [
     85.56833,
     28.53917
    ],
    [
     85.54667,
     28.54833
    ],
    [
     85.5275,
     28.56583
    ],
    [
     85.50833,
     28.55833
    ],
    [
     85.5025,
     28.56167
    ],
    [
     85.50333,
     28.575
    ],
    [
     85.49333,
     28.59917
    ],
    [
     85.48667,
     28.60167
    ],
    [
     85.48833,
     28.61167
    ],
    [
     85.4825,
     28.6175
    ],
    [
     85.46083,
     28.61583
    ],
    [
     85.4425,
     28.6275
    ],
    [
     85.43083,
     28.66833
    ],
    [
     85.43917,
     28.68667
    ],
    [
     85.42083,
     28.6975
    ],
    [
     85.42333,
     28.71417
    ],
    [
     85.41667,
     28.72417
    ],
    [
     85.39833,
     28.73
    ],
    [
     85.4025,
     28.74167
    ],
    [
     85.39,
     28.77417
    ],
    [
     85.3975,
     28.77833
    ],
    [
     85.39583,
     28.78833
    ],
    [
     85.41833,
     28.79583
    ],
    [
     85.42333,
     28.81083
    ],
    [
     85.4125,
     28.84417
    ],
    [
     85.39667,
     28.84333
    ],
    [
     85.3925,
     28.84833
    ],
    [
     85.4,
     28.86333
    ],
    [
     85.38917,
     28.87083
    ],
    [
     85.38417,
     28.89917
    ],
    [
     85.38583,
     28.90917
    ],
    [
     85.3975,
     28.9175
    ],
    [
     85.41333,
     28.98
    ],
    [
     85.39583,
     28.9775
    ],
    [
     85.38833,
     28.98667
    ],
    [
     85.37583,
     28.9825
    ],
    [
     85.36,
     28.99417
    ],
    [
     85.34333,
     28.99083
    ],
    [
     85.32583,
     28.99833
    ],
    [
     85.3175,
     28.99667
    ],
    [
     85.315,
     28.98833
    ],
    [
     85.30167,
     28.99167
    ],
    [
     85.28333,
     28.985
    ],
    [
     85.27667,
     28.98833
    ],
    [
     85.27417,
     29.01
    ]
   ]
  ]
 }
}